{"fetched_at":"2026-07-10T18:08:17.543Z","source":"https://celestrak.org/NORAD/elements/gp.php?NAME=JILIN&FORMAT=JSON","constellation":"jilin-1-kuanfu","records":[{"OBJECT_NAME":"JILIN-1 KUANFU 01","OBJECT_ID":"2020-003A","EPOCH":"2026-07-10T03:15:31.912992","CLASSIFICATION_TYPE":"U","MEAN_MOTION":15.10850259,"ECCENTRICITY":0.00088107,"INCLINATION":97.5021,"RA_OF_ASC_NODE":264.6439,"ARG_OF_PERICENTER":215.6396,"MEAN_ANOMALY":144.4246,"EPHEMERIS_TYPE":0,"NORAD_CAT_ID":45016,"ELEMENT_SET_NO":999,"REV_AT_EPOCH":35879,"BSTAR":0.00012685326,"MEAN_MOTION_DOT":0.00002047,"MEAN_MOTION_DDOT":0},{"OBJECT_NAME":"JILIN-1 KUANFU-01B","OBJECT_ID":"2021-061A","EPOCH":"2026-07-10T07:17:05.250336","CLASSIFICATION_TYPE":"U","MEAN_MOTION":15.09789317,"ECCENTRICITY":0.00065097,"INCLINATION":97.5196,"RA_OF_ASC_NODE":267.0685,"ARG_OF_PERICENTER":355.3422,"MEAN_ANOMALY":4.7745,"EPHEMERIS_TYPE":0,"NORAD_CAT_ID":49003,"ELEMENT_SET_NO":999,"REV_AT_EPOCH":27683,"BSTAR":0.000073856406,"MEAN_MOTION_DOT":0.0000113,"MEAN_MOTION_DDOT":0},{"OBJECT_NAME":"JILIN-1 KUANFU 01C","OBJECT_ID":"2022-048A","EPOCH":"2026-07-10T07:04:24.704832","CLASSIFICATION_TYPE":"U","MEAN_MOTION":15.09583962,"ECCENTRICITY":0.00169533,"INCLINATION":97.5252,"RA_OF_ASC_NODE":268.0479,"ARG_OF_PERICENTER":238.0492,"MEAN_ANOMALY":121.909,"EPHEMERIS_TYPE":0,"NORAD_CAT_ID":52443,"ELEMENT_SET_NO":999,"REV_AT_EPOCH":23068,"BSTAR":0.00013127057,"MEAN_MOTION_DOT":0.00002051,"MEAN_MOTION_DDOT":0},{"OBJECT_NAME":"JILIN-1 KUANFU 02A","OBJECT_ID":"2023-127A","EPOCH":"2026-07-10T07:37:50.963808","CLASSIFICATION_TYPE":"U","MEAN_MOTION":15.10789929,"ECCENTRICITY":0.00099805,"INCLINATION":97.5568,"RA_OF_ASC_NODE":284.844,"ARG_OF_PERICENTER":255.6539,"MEAN_ANOMALY":104.3583,"EPHEMERIS_TYPE":0,"NORAD_CAT_ID":57696,"ELEMENT_SET_NO":999,"REV_AT_EPOCH":15912,"BSTAR":0.00015909833,"MEAN_MOTION_DOT":0.00002579,"MEAN_MOTION_DDOT":0},{"OBJECT_NAME":"JILIN-01 KUANFU 02B 1","OBJECT_ID":"2024-169A","EPOCH":"2026-07-10T06:14:00.476736","CLASSIFICATION_TYPE":"U","MEAN_MOTION":15.09038056,"ECCENTRICITY":0.00019565,"INCLINATION":97.5575,"RA_OF_ASC_NODE":280.4268,"ARG_OF_PERICENTER":2.3237,"MEAN_ANOMALY":357.8001,"EPHEMERIS_TYPE":0,"NORAD_CAT_ID":61189,"ELEMENT_SET_NO":999,"REV_AT_EPOCH":9930,"BSTAR":0.00018210409,"MEAN_MOTION_DOT":0.00002819,"MEAN_MOTION_DDOT":0},{"OBJECT_NAME":"JILIN-01 KUANFU 02B 2","OBJECT_ID":"2024-169B","EPOCH":"2026-07-10T07:19:57.750528","CLASSIFICATION_TYPE":"U","MEAN_MOTION":15.09001338,"ECCENTRICITY":0.00048483,"INCLINATION":97.557,"RA_OF_ASC_NODE":279.8574,"ARG_OF_PERICENTER":301.82,"MEAN_ANOMALY":58.2556,"EPHEMERIS_TYPE":0,"NORAD_CAT_ID":61190,"ELEMENT_SET_NO":999,"REV_AT_EPOCH":9931,"BSTAR":0.00013779976,"MEAN_MOTION_DOT":0.00002116,"MEAN_MOTION_DDOT":0},{"OBJECT_NAME":"JILIN-01 KUANFU 02B 3","OBJECT_ID":"2024-169C","EPOCH":"2026-07-10T07:33:00.925056","CLASSIFICATION_TYPE":"U","MEAN_MOTION":15.09039741,"ECCENTRICITY":0.00126215,"INCLINATION":97.5567,"RA_OF_ASC_NODE":280.2991,"ARG_OF_PERICENTER":223.2335,"MEAN_ANOMALY":136.7904,"EPHEMERIS_TYPE":0,"NORAD_CAT_ID":61191,"ELEMENT_SET_NO":999,"REV_AT_EPOCH":9931,"BSTAR":0.00015447447,"MEAN_MOTION_DOT":0.00002385,"MEAN_MOTION_DDOT":0},{"OBJECT_NAME":"JILIN-01 KUANFU 02B 4","OBJECT_ID":"2024-169D","EPOCH":"2026-07-10T06:47:58.195680","CLASSIFICATION_TYPE":"U","MEAN_MOTION":15.09019962,"ECCENTRICITY":0.00135617,"INCLINATION":97.5526,"RA_OF_ASC_NODE":279.7971,"ARG_OF_PERICENTER":179.9803,"MEAN_ANOMALY":180.1429,"EPHEMERIS_TYPE":0,"NORAD_CAT_ID":61192,"ELEMENT_SET_NO":999,"REV_AT_EPOCH":9931,"BSTAR":0.00013409533,"MEAN_MOTION_DOT":0.00002061,"MEAN_MOTION_DDOT":0},{"OBJECT_NAME":"JILIN-01 KUANFU 02B 5","OBJECT_ID":"2024-169E","EPOCH":"2026-07-10T06:29:27.572928","CLASSIFICATION_TYPE":"U","MEAN_MOTION":15.09053923,"ECCENTRICITY":0.00127621,"INCLINATION":97.5575,"RA_OF_ASC_NODE":280.5779,"ARG_OF_PERICENTER":204.7891,"MEAN_ANOMALY":155.2726,"EPHEMERIS_TYPE":0,"NORAD_CAT_ID":61193,"ELEMENT_SET_NO":999,"REV_AT_EPOCH":9931,"BSTAR":0.0001786224,"MEAN_MOTION_DOT":0.00002769,"MEAN_MOTION_DDOT":0},{"OBJECT_NAME":"JILIN-01 KUANFU 02B 6","OBJECT_ID":"2024-169F","EPOCH":"2026-07-10T07:03:17.606592","CLASSIFICATION_TYPE":"U","MEAN_MOTION":15.09014991,"ECCENTRICITY":0.00152043,"INCLINATION":97.5555,"RA_OF_ASC_NODE":280.4952,"ARG_OF_PERICENTER":239.0908,"MEAN_ANOMALY":120.8827,"EPHEMERIS_TYPE":0,"NORAD_CAT_ID":61194,"ELEMENT_SET_NO":999,"REV_AT_EPOCH":9932,"BSTAR":0.00011467525,"MEAN_MOTION_DOT":0.00001754,"MEAN_MOTION_DDOT":0}]}
