JILIN-1 KUANFU 01       
1 45016U 20003A   26191.13578603  .00002047  00000+0  12685-3 0  9990
2 45016  97.5021 264.6439 0008810 215.6396 144.4246 15.10850259358798
JILIN-1 KUANFU-01B      
1 49003U 21061A   26191.30353299  .00001130  00000+0  73856-4 0  9996
2 49003  97.5196 267.0685 0006509 355.3422   4.7745 15.09789317276836
JILIN-1 KUANFU 01C      
1 52443U 22048A   26191.29473038  .00002051  00000+0  13127-3 0  9993
2 52443  97.5252 268.0479 0016953 238.0492 121.9090 15.09583962230687
JILIN-1 KUANFU 02A      
1 57696U 23127A   26191.31795097  .00002579  00000+0  15910-3 0  9999
2 57696  97.5568 284.8440 0009980 255.6539 104.3583 15.10789929159129
JILIN-01 KUANFU 02B 1   
1 61189U 24169A   26191.25972774  .00002819  00000+0  18210-3 0  9993
2 61189  97.5575 280.4268 0001956   2.3237 357.8001 15.09038056 99305
JILIN-01 KUANFU 02B 2   
1 61190U 24169B   26191.30552952  .00002116  00000+0  13780-3 0  9990
2 61190  97.5570 279.8574 0004848 301.8200  58.2556 15.09001338 99315
JILIN-01 KUANFU 02B 3   
1 61191U 24169C   26191.31459404  .00002385  00000+0  15447-3 0  9990
2 61191  97.5567 280.2991 0012621 223.2335 136.7904 15.09039741 99313
JILIN-01 KUANFU 02B 4   
1 61192U 24169D   26191.28331245  .00002061  00000+0  13410-3 0  9998
2 61192  97.5526 279.7971 0013561 179.9803 180.1429 15.09019962 99319
JILIN-01 KUANFU 02B 5   
1 61193U 24169E   26191.27045802  .00002769  00000+0  17862-3 0  9999
2 61193  97.5575 280.5779 0012762 204.7891 155.2726 15.09053923 99314
JILIN-01 KUANFU 02B 6   
1 61194U 24169F   26191.29395378  .00001754  00000+0  11468-3 0  9997
2 61194  97.5555 280.4952 0015204 239.0908 120.8827 15.09014991 99322
